{"type": "FeatureCollection", "features": [ {"type": "Feature", "properties": {"norad_id": 36206, "name": "FENGYUN 1C DEB", "group": "fengyun-1c-debris", "lat": 51.49349096892667, "lon": 13.726718952746667, "alt_km": 810.477513896466, "timestamp": "2025-12-27T23:26:37.650826+00:00", "meta": {"OBJECT_NAME": "FENGYUN 1C DEB", "OBJECT_ID": "1999-025DUF", "EPOCH": "2025-12-24T20:52:33.826080", "MEAN_MOTION": 14.21615438, "ECCENTRICITY": 0.0029773, "INCLINATION": 98.4773, "RA_OF_ASC_NODE": 21.5465, "ARG_OF_PERICENTER": 343.5868, "MEAN_ANOMALY": 16.4343, "EPHEMERIS_TYPE": 0, "CLASSIFICATION_TYPE": "U", "NORAD_CAT_ID": 36206, "ELEMENT_SET_NO": 999, "REV_AT_EPOCH": 64593, "BSTAR": 0.00062406, "MEAN_MOTION_DOT": 1.333e-05, "MEAN_MOTION_DDOT": 0}, "tle": {"line1": "1 36206U 99025DUF 25358.86983595  .00001333  00000+0  62406-3 0  9998", "line2": "2 36206  98.4773  21.5465 0029773 343.5868  16.4343 14.21615438645938"}}, "geometry": {"type": "Point", "coordinates": [13.726718952746667, 51.49349096892667]}}, {"type": "Feature", "properties": {"norad_id": 36211, "name": "FENGYUN 1C DEB", "group": "fengyun-1c-debris", "lat": 68.87116229579523, "lon": -28.06519903933588, "alt_km": 870.3924885989554, "timestamp": "2025-12-27T23:26:37.650836+00:00", "meta": {"OBJECT_NAME": "FENGYUN 1C DEB", "OBJECT_ID": "1999-025DUL", "EPOCH": "2025-12-27T06:15:34.840224", "MEAN_MOTION": 14.26031725, "ECCENTRICITY": 0.0267132, "INCLINATION": 98.505, "RA_OF_ASC_NODE": 354.0199, "ARG_OF_PERICENTER": 186.1939, "MEAN_ANOMALY": 173.5918, "EPHEMERIS_TYPE": 0, "CLASSIFICATION_TYPE": "U", "NORAD_CAT_ID": 36211, "ELEMENT_SET_NO": 999, "REV_AT_EPOCH": 94576, "BSTAR": 0.00040134, "MEAN_MOTION_DOT": 1.346e-05, "MEAN_MOTION_DDOT": 0}, "tle": {"line1": "1 36211U 99025DUL 25361.26081991  .00001346  00000+0  40134-3 0  9999", "line2": "2 36211  98.5050 354.0199 0267132 186.1939 173.5918 14.26031725945767"}}, "geometry": {"type": "Point", "coordinates": [-28.06519903933588, 68.87116229579523]}}, {"type": "Feature", "properties": {"norad_id": 36216, "name": "FENGYUN 1C DEB", "group": "fengyun-1c-debris", "lat": 52.79854680605158, "lon": 10.229899112489864, "alt_km": 818.3117800707842, "timestamp": "2025-12-27T23:26:37.650846+00:00", "meta": {"OBJECT_NAME": "FENGYUN 1C DEB", "OBJECT_ID": "1999-025DUR", "EPOCH": "2025-12-26T20:06:51.325056", "MEAN_MOTION": 14.18878046, "ECCENTRICITY": 0.00443185, "INCLINATION": 98.6068, "RA_OF_ASC_NODE": 20.6335, "ARG_OF_PERICENTER": 337.3241, "MEAN_ANOMALY": 22.5977, "EPHEMERIS_TYPE": 0, "CLASSIFICATION_TYPE": "U", "NORAD_CAT_ID": 36216, "ELEMENT_SET_NO": 999, "REV_AT_EPOCH": 64572, "BSTAR": 0.00034433137, "MEAN_MOTION_DOT": 6.81e-06, "MEAN_MOTION_DDOT": 0}, "tle": {"line1": "1 36216U 99025DUR 25360.83809404  .00000681  00000+0  34433-3 0  9999", "line2": "2 36216  98.6068  20.6335 0044318 337.3241  22.5977 14.18878046645722"}}, "geometry": {"type": "Point", "coordinates": [10.229899112489864, 52.79854680605158]}}, {"type": "Feature", "properties": {"norad_id": 36218, "name": "FENGYUN 1C DEB", "group": "fengyun-1c-debris", "lat": -60.786224678520085, "lon": -138.67375738501445, "alt_km": 631.2625515073414, "timestamp": "2025-12-27T23:26:37.650856+00:00", "meta": {"OBJECT_NAME": "FENGYUN 1C DEB", "OBJECT_ID": "1999-025DUT", "EPOCH": "2025-12-24T07:34:49.743264", "MEAN_MOTION": 14.71143778, "ECCENTRICITY": 0.00722677, "INCLINATION": 99.0761, "RA_OF_ASC_NODE": 200.6397, "ARG_OF_PERICENTER": 259.5662, "MEAN_ANOMALY": 99.7391, "EPHEMERIS_TYPE": 0, "CLASSIFICATION_TYPE": "U", "NORAD_CAT_ID": 36218, "ELEMENT_SET_NO": 999, "REV_AT_EPOCH": 59313, "BSTAR": 0.0013149069, "MEAN_MOTION_DOT": 8.373e-05, "MEAN_MOTION_DDOT": 0}, "tle": {"line1": "1 36218U 99025DUT 25358.31585351  .00008373  00000+0  13149-2 0  9999", "line2": "2 36218  99.0761 200.6397 0072267 259.5662  99.7391 14.71143778593132"}}, "geometry": {"type": "Point", "coordinates": [-138.67375738501445, -60.786224678520085]}}, {"type": "Feature", "properties": {"norad_id": 36224, "name": "FENGYUN 1C DEB", "group": "fengyun-1c-debris", "lat": -44.13133416578059, "lon": 57.63680071070393, "alt_km": 774.6438376472715, "timestamp": "2025-12-27T23:26:37.650867+00:00", "meta": {"OBJECT_NAME": "FENGYUN 1C DEB", "OBJECT_ID": "1999-025DUZ", "EPOCH": "2025-12-24T08:57:55.014624", "MEAN_MOTION": 14.12767953, "ECCENTRICITY": 0.01140644, "INCLINATION": 98.7784, "RA_OF_ASC_NODE": 45.4833, "ARG_OF_PERICENTER": 318.7957, "MEAN_ANOMALY": 40.4647, "EPHEMERIS_TYPE": 0, "CLASSIFICATION_TYPE": "U", "NORAD_CAT_ID": 36224, "ELEMENT_SET_NO": 999, "REV_AT_EPOCH": 64596, "BSTAR": 0.00011347957, "MEAN_MOTION_DOT": 1.8e-06, "MEAN_MOTION_DDOT": 0}, "tle": {"line1": "1 36224U 99025DUZ 25358.37355341  .00000180  00000+0  11348-3 0  9994", "line2": "2 36224  98.7784  45.4833 0114064 318.7957  40.4647 14.12767953645965"}}, "geometry": {"type": "Point", "coordinates": [57.63680071070393, -44.13133416578059]}}, {"type": "Feature", "properties": {"norad_id": 36225, "name": "FENGYUN 1C DEB", "group": "fengyun-1c-debris", "lat": 2.8914709739509896, "lon": -53.97778117547694, "alt_km": 534.8306737012363, "timestamp": "2025-12-27T23:26:37.650878+00:00", "meta": {"OBJECT_NAME": "FENGYUN 1C DEB", "OBJECT_ID": "1999-025DVA", "EPOCH": "2025-12-27T01:56:38.552064", "MEAN_MOTION": 15.07159571, "ECCENTRICITY": 0.0042953, "INCLINATION": 98.8181, "RA_OF_ASC_NODE": 124.5475, "ARG_OF_PERICENTER": 245.4217, "MEAN_ANOMALY": 114.2528, "EPHEMERIS_TYPE": 0, "CLASSIFICATION_TYPE": "U", "NORAD_CAT_ID": 36225, "ELEMENT_SET_NO": 999, "REV_AT_EPOCH": 66988, "BSTAR": 0.0033224127, "MEAN_MOTION_DOT": 0.00051274, "MEAN_MOTION_DDOT": 0}, "tle": {"line1": "1 36225U 99025DVA 25361.08100176  .00051274  00000+0  33224-2 0  9997", "line2": "2 36225  98.8181 124.5475 0042953 245.4217 114.2528 15.07159571669882"}}, "geometry": {"type": "Point", "coordinates": [-53.97778117547694, 2.8914709739509896]}}, {"type": "Feature", "properties": {"norad_id": 36226, "name": "FENGYUN 1C DEB", "group": "fengyun-1c-debris", "lat": -25.15638874919235, "lon": 47.91770243805336, "alt_km": 794.9049575765393, "timestamp": "2025-12-27T23:26:37.650891+00:00", "meta": {"OBJECT_NAME": "FENGYUN 1C DEB", "OBJECT_ID": "1999-025DVB", "EPOCH": "2025-12-16T21:56:50.014464", "MEAN_MOTION": 14.10310742, "ECCENTRICITY": 0.0095148, "INCLINATION": 98.6088, "RA_OF_ASC_NODE": 33.2455, "ARG_OF_PERICENTER": 8.6109, "MEAN_ANOMALY": 351.6668, "EPHEMERIS_TYPE": 0, "CLASSIFICATION_TYPE": "U", "NORAD_CAT_ID": 36226, "ELEMENT_SET_NO": 999, "REV_AT_EPOCH": 63821, "BSTAR": 0.0011977074, "MEAN_MOTION_DOT": 2.175e-05, "MEAN_MOTION_DDOT": 0}, "tle": {"line1": "1 36226U 99025DVB 25350.91446776  .00002175  00000+0  11977-2 0  9994", "line2": "2 36226  98.6088  33.2455 0095148   8.6109 351.6668 14.10310742638211"}}, "geometry": {"type": "Point", "coordinates": [47.91770243805336, -25.15638874919235]}}, {"type": "Feature", "properties": {"norad_id": 36229, "name": "FENGYUN 1C DEB", "group": "fengyun-1c-debris", "lat": -63.08956200838765, "lon": -112.73976040728462, "alt_km": 938.7125102095406, "timestamp": "2025-12-27T23:26:37.650901+00:00", "meta": {"OBJECT_NAME": "FENGYUN 1C DEB", "OBJECT_ID": "1999-025DVE", "EPOCH": "2025-12-26T20:27:17.854272", "MEAN_MOTION": 14.07265723, "ECCENTRICITY": 0.01033341, "INCLINATION": 100.9239, "RA_OF_ASC_NODE": 223.5394, "ARG_OF_PERICENTER": 85.1959, "MEAN_ANOMALY": 276.0994, "EPHEMERIS_TYPE": 0, "CLASSIFICATION_TYPE": "U", "NORAD_CAT_ID": 36229, "ELEMENT_SET_NO": 999, "REV_AT_EPOCH": 63454, "BSTAR": 0.0017132996, "MEAN_MOTION_DOT": 2.959e-05, "MEAN_MOTION_DDOT": 0}, "tle": {"line1": "1 36229U 99025DVE 25360.85228998  .00002959  00000+0  17133-2 0  9995", "line2": "2 36229 100.9239 223.5394 0103334  85.1959 276.0994 14.07265723634543"}}, "geometry": {"type": "Point", "coordinates": [-112.73976040728462, -63.08956200838765]}}, {"type": "Feature", "properties": {"norad_id": 36230, "name": "FENGYUN 1C DEB", "group": "fengyun-1c-debris", "lat": -29.19840397181296, "lon": -108.31058457599339, "alt_km": 1029.8183269667907, "timestamp": "2025-12-27T23:26:37.650911+00:00", "meta": {"OBJECT_NAME": "FENGYUN 1C DEB", "OBJECT_ID": "1999-025DVF", "EPOCH": "2025-12-22T01:01:35.356512", "MEAN_MOTION": 13.7530541, "ECCENTRICITY": 0.0216662, "INCLINATION": 99.5223, "RA_OF_ASC_NODE": 71.1449, "ARG_OF_PERICENTER": 117.9783, "MEAN_ANOMALY": 244.3476, "EPHEMERIS_TYPE": 0, "CLASSIFICATION_TYPE": "U", "NORAD_CAT_ID": 36230, "ELEMENT_SET_NO": 999, "REV_AT_EPOCH": 62014, "BSTAR": 0.0015305851, "MEAN_MOTION_DOT": 1.699e-05, "MEAN_MOTION_DDOT": 0}, "tle": {"line1": "1 36230U 99025DVF 25356.04277033  .00001699  00000+0  15306-2 0  9997", "line2": "2 36230  99.5223  71.1449 0216662 117.9783 244.3476 13.75305410620143"}}, "geometry": {"type": "Point", "coordinates": [-108.31058457599339, -29.19840397181296]}}, {"type": "Feature", "properties": {"norad_id": 36231, "name": "FENGYUN 1C DEB", "group": "fengyun-1c-debris", "lat": -42.89344933877478, "lon": -15.393492673951958, "alt_km": 820.2867282852803, "timestamp": "2025-12-27T23:26:37.650923+00:00", "meta": {"OBJECT_NAME": "FENGYUN 1C DEB", "OBJECT_ID": "1999-025DVG", "EPOCH": "2025-12-25T15:31:35.680800", "MEAN_MOTION": 14.12014383, "ECCENTRICITY": 0.00600087, "INCLINATION": 98.6901, "RA_OF_ASC_NODE": 334.1799, "ARG_OF_PERICENTER": 296.3877, "MEAN_ANOMALY": 63.1143, "EPHEMERIS_TYPE": 0, "CLASSIFICATION_TYPE": "U", "NORAD_CAT_ID": 36231, "ELEMENT_SET_NO": 999, "REV_AT_EPOCH": 85725, "BSTAR": 0.00016050686, "MEAN_MOTION_DOT": 2.56e-06, "MEAN_MOTION_DDOT": 0}, "tle": {"line1": "1 36231U 99025DVG 25359.64694075  .00000256  00000+0  16051-3 0  9993", "line2": "2 36231  98.6901 334.1799 0060008 296.3877  63.1143 14.12014383857254"}}, "geometry": {"type": "Point", "coordinates": [-15.393492673951958, -42.89344933877478]}}]}